[
  {
    "OBJECT_NAME": "STARLINK-30141",
    "OBJECT_ID": "23119U",
    "EPOCH": "2025-11-11T04:00:59.841792",
    "MEAN_MOTION": 15.02533325,
    "ECCENTRICITY": 0.0001051,
    "INCLINATION": 43.0047,
    "RA_OF_ASC_NODE": 5.9213,
    "ARG_OF_PERICENTER": 271.3535,
    "MEAN_ANOMALY": 88.7187,
    "EPHEMERIS_TYPE": 0,
    "CLASSIFICATION_TYPE": "U",
    "NORAD_CAT_ID": 57620,
    "ELEMENT_SET_NO": 999,
    "REV_AT_EPOCH": 12525,
    "BSTAR": 9.427900000000001e-05,
    "MEAN_MOTION_DOT": 1.07e-05,
    "MEAN_MOTION_DDOT": 0.0,
    "TLE_LINE1": "1 57620U 23119U   25315.16735928  .00001070  00000+0  94279-4 0  9995",
    "TLE_LINE2": "2 57620  43.0047   5.9213 0001051 271.3535  88.7187 15.02533325125256",
    "COMMENT": "Grouped by shell and plane from TLE"
  },
  {
    "OBJECT_NAME": "STARLINK-30150",
    "OBJECT_ID": "23119V",
    "EPOCH": "2025-11-11T04:04:11.729280",
    "MEAN_MOTION": 15.0253185,
    "ECCENTRICITY": 0.0001117,
    "INCLINATION": 43.0041,
    "RA_OF_ASC_NODE": 5.9401,
    "ARG_OF_PERICENTER": 279.3003,
    "MEAN_ANOMALY": 80.7713,
    "EPHEMERIS_TYPE": 0,
    "CLASSIFICATION_TYPE": "U",
    "NORAD_CAT_ID": 57621,
    "ELEMENT_SET_NO": 999,
    "REV_AT_EPOCH": 12525,
    "BSTAR": 5.5292e-05,
    "MEAN_MOTION_DOT": 5.43e-06,
    "MEAN_MOTION_DDOT": 0.0,
    "TLE_LINE1": "1 57621U 23119V   25315.16958020  .00000543  00000+0  55292-4 0  9992",
    "TLE_LINE2": "2 57621  43.0041   5.9401 0001117 279.3003  80.7713 15.02531850125259",
    "COMMENT": "Grouped by shell and plane from TLE"
  },
  {
    "OBJECT_NAME": "STARLINK-30056",
    "OBJECT_ID": "23119W",
    "EPOCH": "2025-11-11T03:59:23.536896",
    "MEAN_MOTION": 15.02531585,
    "ECCENTRICITY": 0.0001181,
    "INCLINATION": 43.0031,
    "RA_OF_ASC_NODE": 5.8841,
    "ARG_OF_PERICENTER": 276.8993,
    "MEAN_ANOMALY": 83.1715,
    "EPHEMERIS_TYPE": 0,
    "CLASSIFICATION_TYPE": "U",
    "NORAD_CAT_ID": 57622,
    "ELEMENT_SET_NO": 999,
    "REV_AT_EPOCH": 12525,
    "BSTAR": 0.00010856,
    "MEAN_MOTION_DOT": 1.263e-05,
    "MEAN_MOTION_DDOT": 0.0,
    "TLE_LINE1": "1 57622U 23119W   25315.16624464  .00001263  00000+0  10856-3 0  9991",
    "TLE_LINE2": "2 57622  43.0031   5.8841 0001181 276.8993  83.1715 15.02531585125251",
    "COMMENT": "Grouped by shell and plane from TLE"
  },
  {
    "OBJECT_NAME": "STARLINK-30100",
    "OBJECT_ID": "23119X",
    "EPOCH": "2025-11-11T03:54:34.000992",
    "MEAN_MOTION": 15.02563525,
    "ECCENTRICITY": 0.0001969,
    "INCLINATION": 43.0043,
    "RA_OF_ASC_NODE": 5.8872,
    "ARG_OF_PERICENTER": 308.4809,
    "MEAN_ANOMALY": 51.5857,
    "EPHEMERIS_TYPE": 0,
    "CLASSIFICATION_TYPE": "U",
    "NORAD_CAT_ID": 57623,
    "ELEMENT_SET_NO": 999,
    "REV_AT_EPOCH": 12525,
    "BSTAR": 0.00018604000000000003,
    "MEAN_MOTION_DOT": 2.312e-05,
    "MEAN_MOTION_DDOT": 0.0,
    "TLE_LINE1": "1 57623U 23119X   25315.16289353  .00002312  00000+0  18604-3 0  9991",
    "TLE_LINE2": "2 57623  43.0043   5.8872 0001969 308.4809  51.5857 15.02563525125256",
    "COMMENT": "Grouped by shell and plane from TLE"
  },
  {
    "OBJECT_NAME": "STARLINK-30323",
    "OBJECT_ID": "23122C",
    "EPOCH": "2025-11-11T04:39:10.441440",
    "MEAN_MOTION": 15.02533128,
    "ECCENTRICITY": 0.0001346,
    "INCLINATION": 43.0018,
    "RA_OF_ASC_NODE": 5.2081,
    "ARG_OF_PERICENTER": 286.859,
    "MEAN_ANOMALY": 73.2104,
    "EPHEMERIS_TYPE": 0,
    "CLASSIFICATION_TYPE": "U",
    "NORAD_CAT_ID": 57634,
    "ELEMENT_SET_NO": 999,
    "REV_AT_EPOCH": 12451,
    "BSTAR": 0.00010718,
    "MEAN_MOTION_DOT": 1.244e-05,
    "MEAN_MOTION_DDOT": 0.0,
    "TLE_LINE1": "1 57634U 23122C   25315.19387085  .00001244  00000+0  10718-3 0  9992",
    "TLE_LINE2": "2 57634  43.0018   5.2081 0001346 286.8590  73.2104 15.02533128124511",
    "COMMENT": "Grouped by shell and plane from TLE"
  },
  {
    "OBJECT_NAME": "STARLINK-30328",
    "OBJECT_ID": "23122G",
    "EPOCH": "2025-11-11T04:48:44.831232",
    "MEAN_MOTION": 15.02539196,
    "ECCENTRICITY": 0.0001372,
    "INCLINATION": 43.0045,
    "RA_OF_ASC_NODE": 5.1976,
    "ARG_OF_PERICENTER": 278.3394,
    "MEAN_ANOMALY": 81.7293,
    "EPHEMERIS_TYPE": 0,
    "CLASSIFICATION_TYPE": "U",
    "NORAD_CAT_ID": 57638,
    "ELEMENT_SET_NO": 999,
    "REV_AT_EPOCH": 12452,
    "BSTAR": 6.4423e-05,
    "MEAN_MOTION_DOT": 6.67e-06,
    "MEAN_MOTION_DDOT": 0.0,
    "TLE_LINE1": "1 57638U 23122G   25315.20051888  .00000667  00000+0  64423-4 0  9998",
    "TLE_LINE2": "2 57638  43.0045   5.1976 0001372 278.3394  81.7293 15.02539196124529",
    "COMMENT": "Grouped by shell and plane from TLE"
  },
  {
    "OBJECT_NAME": "STARLINK-30294",
    "OBJECT_ID": "23122V",
    "EPOCH": "2025-11-11T05:06:19.624032",
    "MEAN_MOTION": 15.02549056,
    "ECCENTRICITY": 0.0001172,
    "INCLINATION": 43.0062,
    "RA_OF_ASC_NODE": 5.3566,
    "ARG_OF_PERICENTER": 253.8667,
    "MEAN_ANOMALY": 106.2046,
    "EPHEMERIS_TYPE": 0,
    "CLASSIFICATION_TYPE": "U",
    "NORAD_CAT_ID": 57651,
    "ELEMENT_SET_NO": 999,
    "REV_AT_EPOCH": 12451,
    "BSTAR": 0.00010004000000000001,
    "MEAN_MOTION_DOT": 1.148e-05,
    "MEAN_MOTION_DDOT": 0.0,
    "TLE_LINE1": "1 57651U 23122V   25315.21272713  .00001148  00000+0  10004-3 0  9996",
    "TLE_LINE2": "2 57651  43.0062   5.3566 0001172 253.8667 106.2046 15.02549056124513",
    "COMMENT": "Grouped by shell and plane from TLE"
  },
  {
    "OBJECT_NAME": "STARLINK-30289",
    "OBJECT_ID": "23122X",
    "EPOCH": "2025-11-11T03:35:23.759520",
    "MEAN_MOTION": 15.02540638,
    "ECCENTRICITY": 0.0002921,
    "INCLINATION": 43.0089,
    "RA_OF_ASC_NODE": 5.6899,
    "ARG_OF_PERICENTER": 256.5893,
    "MEAN_ANOMALY": 103.4624,
    "EPHEMERIS_TYPE": 0,
    "CLASSIFICATION_TYPE": "U",
    "NORAD_CAT_ID": 57653,
    "ELEMENT_SET_NO": 999,
    "REV_AT_EPOCH": 12450,
    "BSTAR": 0.00015924,
    "MEAN_MOTION_DOT": 1.948e-05,
    "MEAN_MOTION_DDOT": 0.0,
    "TLE_LINE1": "1 57653U 23122X   25315.14958055  .00001948  00000+0  15924-3 0  9994",
    "TLE_LINE2": "2 57653  43.0089   5.6899 0002921 256.5893 103.4624 15.02540638124507",
    "COMMENT": "Grouped by shell and plane from TLE"
  },
  {
    "OBJECT_NAME": "STARLINK-30604",
    "OBJECT_ID": "23160A",
    "EPOCH": "2025-11-11T05:18:44.400672",
    "MEAN_MOTION": 15.02539018,
    "ECCENTRICITY": 9.15e-05,
    "INCLINATION": 43.0031,
    "RA_OF_ASC_NODE": 4.2859,
    "ARG_OF_PERICENTER": 243.0742,
    "MEAN_ANOMALY": 117.0007,
    "EPHEMERIS_TYPE": 0,
    "CLASSIFICATION_TYPE": "U",
    "NORAD_CAT_ID": 58075,
    "ELEMENT_SET_NO": 999,
    "REV_AT_EPOCH": 11509,
    "BSTAR": 0.00029253,
    "MEAN_MOTION_DOT": 3.751e-05,
    "MEAN_MOTION_DDOT": 0.0,
    "TLE_LINE1": "1 58075U 23160A   25315.22134723  .00003751  00000+0  29253-3 0  9996",
    "TLE_LINE2": "2 58075  43.0031   4.2859 0000915 243.0742 117.0007 15.02539018115099",
    "COMMENT": "Grouped by shell and plane from TLE"
  },
  {
    "OBJECT_NAME": "STARLINK-30500",
    "OBJECT_ID": "23160B",
    "EPOCH": "2025-11-11T03:57:13.031424",
    "MEAN_MOTION": 15.02528389,
    "ECCENTRICITY": 7.92e-05,
    "INCLINATION": 43.0055,
    "RA_OF_ASC_NODE": 3.8617,
    "ARG_OF_PERICENTER": 288.4977,
    "MEAN_ANOMALY": 71.5779,
    "EPHEMERIS_TYPE": 0,
    "CLASSIFICATION_TYPE": "U",
    "NORAD_CAT_ID": 58076,
    "ELEMENT_SET_NO": 999,
    "REV_AT_EPOCH": 11509,
    "BSTAR": 0.00033904000000000003,
    "MEAN_MOTION_DOT": 4.378e-05,
    "MEAN_MOTION_DDOT": 0.0,
    "TLE_LINE1": "1 58076U 23160B   25315.16473416  .00004378  00000+0  33904-3 0  9999",
    "TLE_LINE2": "2 58076  43.0055   3.8617 0000792 288.4977  71.5779 15.02528389115098",
    "COMMENT": "Grouped by shell and plane from TLE"
  },
  {
    "OBJECT_NAME": "STARLINK-30613",
    "OBJECT_ID": "23160C",
    "EPOCH": "2025-11-11T03:33:24.761664",
    "MEAN_MOTION": 15.02542015,
    "ECCENTRICITY": 0.0001285,
    "INCLINATION": 43.0027,
    "RA_OF_ASC_NODE": 4.599,
    "ARG_OF_PERICENTER": 280.618,
    "MEAN_ANOMALY": 79.4518,
    "EPHEMERIS_TYPE": 0,
    "CLASSIFICATION_TYPE": "U",
    "NORAD_CAT_ID": 58077,
    "ELEMENT_SET_NO": 999,
    "REV_AT_EPOCH": 11509,
    "BSTAR": 4.9534000000000004e-05,
    "MEAN_MOTION_DOT": 4.66e-06,
    "MEAN_MOTION_DDOT": 0.0,
    "TLE_LINE1": "1 58077U 23160C   25315.14820326  .00000466  00000+0  49534-4 0  9995",
    "TLE_LINE2": "2 58077  43.0027   4.5990 0001285 280.6180  79.4518 15.02542015115098",
    "COMMENT": "Grouped by shell and plane from TLE"
  },
  {
    "OBJECT_NAME": "STARLINK-30597",
    "OBJECT_ID": "23160D",
    "EPOCH": "2025-11-11T03:47:47.028480",
    "MEAN_MOTION": 15.02542705,
    "ECCENTRICITY": 0.000148,
    "INCLINATION": 43.0044,
    "RA_OF_ASC_NODE": 4.6533,
    "ARG_OF_PERICENTER": 268.0626,
    "MEAN_ANOMALY": 92.0047,
    "EPHEMERIS_TYPE": 0,
    "CLASSIFICATION_TYPE": "U",
    "NORAD_CAT_ID": 58078,
    "ELEMENT_SET_NO": 999,
    "REV_AT_EPOCH": 11508,
    "BSTAR": 0.00019437,
    "MEAN_MOTION_DOT": 2.423e-05,
    "MEAN_MOTION_DDOT": 0.0,
    "TLE_LINE1": "1 58078U 23160D   25315.15818320  .00002423  00000+0  19437-3 0  9991",
    "TLE_LINE2": "2 58078  43.0044   4.6533 0001480 268.0626  92.0047 15.02542705115087",
    "COMMENT": "Grouped by shell and plane from TLE"
  },
  {
    "OBJECT_NAME": "STARLINK-30598",
    "OBJECT_ID": "23160E",
    "EPOCH": "2025-11-11T05:04:20.616672",
    "MEAN_MOTION": 15.02537832,
    "ECCENTRICITY": 9.89e-05,
    "INCLINATION": 43.0038,
    "RA_OF_ASC_NODE": 4.2132,
    "ARG_OF_PERICENTER": 280.741,
    "MEAN_ANOMALY": 79.332,
    "EPHEMERIS_TYPE": 0,
    "CLASSIFICATION_TYPE": "U",
    "NORAD_CAT_ID": 58079,
    "ELEMENT_SET_NO": 999,
    "REV_AT_EPOCH": 11509,
    "BSTAR": 0.00010111000000000001,
    "MEAN_MOTION_DOT": 1.163e-05,
    "MEAN_MOTION_DDOT": 0.0,
    "TLE_LINE1": "1 58079U 23160E   25315.21134973  .00001163  00000+0  10111-3 0  9994",
    "TLE_LINE2": "2 58079  43.0038   4.2132 0000989 280.7410  79.3320 15.02537832115095",
    "COMMENT": "Grouped by shell and plane from TLE"
  }
]